{
  "type": "FeatureCollection",
  "features": [
    {
      "type": "Feature",
      "properties": {
        "norad_id": 54259,
        "name": "EUTELSAT 10B",
        "group": "eutelsat",
        "lat": 0.004900227021985671,
        "lon": -106.30176214345501,
        "alt_km": 35786.44535862737,
        "timestamp": "2025-12-11T10:53:15.557203+00:00",
        "meta_object_name": "EUTELSAT 10B",
        "meta_object_id": "2022-157A",
        "meta_epoch": "2025-12-10T23:51:46.763136",
        "meta_mean_motion": 1.00269612,
        "meta_eccentricity": 7.44e-05,
        "meta_inclination": 0.0623,
        "meta_ra_of_asc_node": 98.8019,
        "meta_arg_of_pericenter": 68.7015,
        "meta_mean_anomaly": 280.371,
        "meta_ephemeris_type": 0,
        "meta_classification_type": "U",
        "meta_norad_cat_id": 54259,
        "meta_element_set_no": 999,
        "meta_rev_at_epoch": 1114,
        "meta_bstar": 0,
        "meta_mean_motion_dot": 7.3e-07,
        "meta_mean_motion_ddot": 0,
        "tle_line1": "1 54259U 22157A   25344.99429124  .00000073  00000+0  00000+0 0  9998",
        "tle_line2": "2 54259   0.0623  98.8019 0000744  68.7015 280.3710  1.00269612 11140"
      },
      "geometry": {
        "type": "Point",
        "coordinates": [
          -106.30176214345501,
          0.004900227021985671
        ]
      }
    },
    {
      "type": "Feature",
      "properties": {
        "norad_id": 59346,
        "name": "EUTELSAT 36D",
        "group": "eutelsat",
        "lat": -0.0326096298392704,
        "lon": -80.43559022637464,
        "alt_km": 35785.03805023475,
        "timestamp": "2025-12-11T10:53:15.557215+00:00",
        "meta_object_name": "EUTELSAT 36D",
        "meta_object_id": "2024-059A",
        "meta_epoch": "2025-12-10T23:59:08.558304",
        "meta_mean_motion": 1.00270665,
        "meta_eccentricity": 6.53e-05,
        "meta_inclination": 0.0175,
        "meta_ra_of_asc_node": 350.3136,
        "meta_arg_of_pericenter": 350.9319,
        "meta_mean_anomaly": 134.3543,
        "meta_ephemeris_type": 0,
        "meta_classification_type": "U",
        "meta_norad_cat_id": 59346,
        "meta_element_set_no": 999,
        "meta_rev_at_epoch": 626,
        "meta_bstar": 0,
        "meta_mean_motion_dot": 0,
        "meta_mean_motion_ddot": 0,
        "tle_line1": "1 59346U 24059A   25344.99940461  .00000000  00000+0  00000+0 0  9995",
        "tle_line2": "2 59346   0.0175 350.3136 0000653 350.9319 134.3543  1.00270665  6261"
      },
      "geometry": {
        "type": "Point",
        "coordinates": [
          -80.43559022637464,
          -0.0326096298392704
        ]
      }
    }
  ]
}